NORAD_CAT_ID,OBJECT_NAME,OBJECT_TYPE,EPOCH,MEAN_MOTION,ECCENTRICITY,INCLINATION,RA_OF_ASC_NODE,ARG_OF_PERICENTER,MEAN_ANOMALY,BSTAR,MEAN_MOTION_DOT,MEAN_MOTION_DDOT,TLE_LINE0,TLE_LINE1,TLE_LINE2,SEMIMAJOR_AXIS,PERIOD,APOGEE,PERIGEE,DECAYED
53838.0,STARLINK-4773,PAYLOAD,2024-03-04 12:29:12,15.08853863,0.0001206,53.2196,354.5909,89.3005,270.8125,9.4364e-05,1.215e-05,0.0,0 STARLINK-4773,1 53838U 22114W   24064.52028589  .00001215  00000-0  94364-4 0  9991,2 53838  53.2196 354.5909 0001206  89.3005 270.8125 15.08853863 81443,6917.838,95.437,540.537,538.869,0.0
53838.0,STARLINK-4773,PAYLOAD,2024-03-05 02:47:41,15.08843648,0.0001218,53.2184,351.9165,84.7211,275.392,0.00026435,3.922e-05,0.0,0 STARLINK-4773,1 53838U 22114W   24065.11645059  .00003922  00000-0  26435-3 0  9994,2 53838  53.2184 351.9165 0001218  84.7211 275.3920 15.08843648 81539,6917.869,95.437,540.577,538.892,0.0
53838.0,STARLINK-4773,PAYLOAD,2024-03-05 04:23:04,15.08847011,0.0001198,53.2186,351.6188,83.4547,276.6581,0.00028212,4.206e-05,0.0,0 STARLINK-4773,1 53838U 22114W   24065.18268763  .00004206  00000-0  28212-3 0  9995,2 53838  53.2186 351.6188 0001198  83.4547 276.6581 15.08847011 82084,6917.859,95.437,540.553,538.895,0.0
53838.0,STARLINK-4773,PAYLOAD,2024-03-05 12:20:01,15.08830261,0.0001096,53.2187,350.1324,76.2062,283.9053,9.3398e-05,1.199e-05,0.0,0 STARLINK-4773,1 53838U 22114W   24065.51390396  .00001199  00000-0  93398-4 0  9996,2 53838  53.2187 350.1324 0001096  76.2062 283.9053 15.08830261 81599,6917.91,95.438,540.533,539.017,0.0
53838.0,STARLINK-4773,PAYLOAD,2024-03-06 01:03:06,15.08855796,0.0001467,53.2192,347.7527,85.2185,274.8974,-0.00024511,-4.188e-05,0.0,0 STARLINK-4773,1 53838U 22114W   24066.04381946 -.00004188  00000-0 -24511-3 0  9999,2 53838  53.2192 347.7527 0001467  85.2185 274.8974 15.08855796 81670,6917.832,95.437,540.712,538.682,0.0
53838.0,STARLINK-4773,PAYLOAD,2024-03-06 04:13:52,15.08856847,0.0001518,53.219,347.1566,87.8004,272.3162,-0.00022411,-3.855e-05,0.0,0 STARLINK-4773,1 53838U 22114W   24066.17629653 -.00003855  00000-0 -22411-3 0  9990,2 53838  53.2190 347.1566 0001518  87.8004 272.3162 15.08856847 82233,6917.829,95.436,540.744,538.644,0.0
53838.0,STARLINK-4773,PAYLOAD,2024-03-07 00:53:52,15.08839514,0.0001232,53.2197,343.2907,102.5278,257.5852,2.6488e-05,1.34e-06,0.0,0 STARLINK-4773,1 53838U 22114W   24067.03741452  .00000134  00000-0  26488-4 0  9992,2 53838  53.2197 343.2907 0001232 102.5278 257.5852 15.08839514 81824,6917.882,95.438,540.599,538.895,0.0
53838.0,STARLINK-4773,PAYLOAD,2024-03-08 03:55:26,15.08837123,0.0001422,53.219,338.2361,104.23,255.885,3.1756e-05,2.17e-06,0.0,0 STARLINK-4773,1 53838U 22114W   24068.16349776  .00000217  00000-0  31756-4 0  9996,2 53838  53.2190 338.2361 0001422 104.2300 255.8850 15.08837123 81992,6917.889,95.438,540.738,538.77,0.0
53838.0,STARLINK-4773,PAYLOAD,2024-03-09 10:07:45,15.08847463,0.0001412,53.2193,332.5894,89.3344,270.781,0.00010186,1.334e-05,0.0,0 STARLINK-4773,1 53838U 22114W   24069.42205170  .00001334  00000-0  10186-3 0  9999,2 53838  53.2193 332.5894 0001412  89.3344 270.7810 15.08847463 82185,6917.858,95.437,540.699,538.746,0.0
53838.0,STARLINK-4773,PAYLOAD,2024-03-10 00:26:14,15.08834177,0.0001377,53.2179,329.9116,80.8459,279.2689,1.7247e-05,-1.3e-07,0.0,0 STARLINK-4773,1 53838U 22114W   24070.01822292 -.00000013  00000-0  17247-4 0  9996,2 53838  53.2179 329.9116 0001377  80.8459 279.2689 15.08834177 82275,6917.898,95.438,540.716,538.811,0.0
53838.0,STARLINK-4773,PAYLOAD,2024-03-10 09:58:32,15.08849373,0.0001509,53.2187,328.1274,120.7253,239.3888,8.9665e-05,1.14e-05,0.0,0 STARLINK-4773,1 53838U 22114W   24070.41565026  .00001140  00000-0  89665-4 0  9993,2 53838  53.2187 328.1274 0001509 120.7253 239.3888 15.08849373 82332,6917.852,95.437,540.761,538.673,0.0
53838.0,STARLINK-4773,PAYLOAD,2024-03-10 21:06:15,15.08831714,0.0001385,53.2177,326.0486,89.8118,270.3033,-0.00011935,-2.186e-05,0.0,0 STARLINK-4773,1 53838U 22114W   24070.87935068 -.00002186  00000-0 -11935-3 0  9997,2 53838  53.2177 326.0486 0001385  89.8118 270.3033 15.08831714 82405,6917.906,95.438,540.729,538.813,0.0
53838.0,STARLINK-4773,PAYLOAD,2024-03-10 22:41:38,15.08832581,0.0001474,53.2179,325.7508,87.4091,272.707,-0.00010971,-2.033e-05,0.0,0 STARLINK-4773,1 53838U 22114W   24070.94559025 -.00002033  00000-0 -10971-3 0  9990,2 53838  53.2179 325.7508 0001474  87.4091 272.7070 15.08832581 82951,6917.903,95.438,540.788,538.748,0.0
53838.0,STARLINK-4773,PAYLOAD,2024-03-11 01:52:24,15.08838604,0.000141,53.2176,325.1557,81.5186,278.5966,-5.5527e-05,-1.172e-05,0.0,0 STARLINK-4773,1 53838U 22114W   24071.07806540 -.00001172  00000-0 -55527-4 0  9992,2 53838  53.2176 325.1557 0001410  81.5186 278.5966 15.08838604 82439,6917.885,95.438,540.725,538.774,0.0
53838.0,STARLINK-4773,PAYLOAD,2024-03-11 09:49:20,15.0884119,0.0001574,53.2187,323.669,87.1034,273.0138,-2.6943e-05,-7.17e-06,0.0,0 STARLINK-4773,1 53838U 22114W   24071.40926282 -.00000717  00000-0 -26943-4 0  9999,2 53838  53.2187 323.6690 0001574  87.1034 273.0138 15.08841190 83028,6917.877,95.437,540.831,538.653,0.0
53838.0,STARLINK-4773,PAYLOAD,2024-03-12 09:40:06,15.08850262,0.0001354,53.2187,319.2064,84.6076,275.5071,3.3956e-05,2.53e-06,0.0,0 STARLINK-4773,1 53838U 22114W   24072.40285558  .00000253  00000-0  33956-4 0  9999,2 53838  53.2187 319.2064 0001354  84.6076 275.5071 15.08850262 82637,6917.849,95.437,540.651,538.777,0.0
53838.0,STARLINK-4773,PAYLOAD,2024-03-12 22:23:12,15.08833811,0.0001663,53.2191,316.8272,83.6676,276.4506,0.00010875,1.443e-05,0.0,0 STARLINK-4773,1 53838U 22114W   24072.93278524  .00001443  00000-0  10875-3 0  9998,2 53838  53.2191 316.8272 0001663  83.6676 276.4506 15.08833811 83257,6917.899,95.438,540.915,538.614,0.0
53838.0,STARLINK-4773,PAYLOAD,2024-03-13 09:30:53,15.0884979,0.0001462,53.2181,314.745,83.9857,276.1302,0.00014003,1.942e-05,0.0,0 STARLINK-4773,1 53838U 22114W   24073.39645235  .00001942  00000-0  14003-3 0  9997,2 53838  53.2181 314.7450 0001462  83.9857 276.1302 15.08849790 83324,6917.85,95.437,540.727,538.704,0.0
53838.0,STARLINK-4773,PAYLOAD,2024-03-13 22:13:59,15.08841424,0.0001506,53.2203,312.3657,89.7589,270.3576,-4.8196e-05,-1.055e-05,0.0,0 STARLINK-4773,1 53838U 22114W   24073.92638463 -.00001055  00000-0 -48196-4 0  9999,2 53838  53.2203 312.3657 0001506  89.7589 270.3576 15.08841424 83401,6917.876,95.437,540.783,538.699,0.0
53838.0,STARLINK-4773,PAYLOAD,2024-03-14 01:24:45,15.08845382,0.0001902,53.2206,311.7695,92.0706,268.0504,-1.0753e-05,-4.59e-06,0.0,0 STARLINK-4773,1 53838U 22114W   24074.05886126 -.00000459  00000-0 -10753-4 0  9990,2 53838  53.2206 311.7695 0001902  92.0706 268.0504 15.08845382 82880,6917.864,95.437,541.045,538.413,0.0
53838.0,STARLINK-4773,PAYLOAD,2024-03-14 22:04:45,15.08876518,0.0001435,53.2193,307.8999,137.1479,222.9625,-0.00041681,-6.922e-05,0.0,0 STARLINK-4773,1 53838U 22114W   24074.91997420 -.00006922  00000-0 -41681-3 0  9999,2 53838  53.2193 307.8999 0001435 137.1479 222.9625 15.08876518 83550,6917.769,95.435,540.626,538.641,0.0
53838.0,STARLINK-4773,PAYLOAD,2024-03-15 21:55:33,15.08837113,0.0001537,53.217,303.4424,120.7683,239.346,-2.0335e-05,-6.12e-06,0.0,0 STARLINK-4773,1 53838U 22114W   24075.91358229 -.00000612  00000-0 -20335-4 0  9992,2 53838  53.2170 303.4424 0001537 120.7683 239.3460 15.08837113 83702,6917.889,95.438,540.817,538.691,0.0
53838.0,STARLINK-4773,PAYLOAD,2024-03-16 13:49:25,15.08834853,0.0001333,53.2164,300.471,92.549,267.5655,5.8589e-06,-1.95e-06,0.0,0 STARLINK-4773,1 53838U 22114W   24076.57598578 -.00000195  00000-0  58589-5 0  9996,2 53838  53.2164 300.4710 0001333  92.5490 267.5655 15.08834853 83804,6917.896,95.438,540.683,538.839,0.0
53838.0,STARLINK-4773,PAYLOAD,2024-03-16 21:46:20,15.08834602,0.0001338,53.2167,298.9843,101.0214,259.0929,2.4567e-05,1.03e-06,0.0,0 STARLINK-4773,1 53838U 22114W   24076.90718589  .00000103  00000-0  24567-4 0  9995,2 53838  53.2167 298.9843 0001338 101.0214 259.0929 15.08834602 83857,6917.897,95.438,540.688,538.836,0.0
53838.0,STARLINK-4773,PAYLOAD,2024-03-17 20:01:44,15.08835033,0.0001295,53.2168,294.8216,98.6265,261.4874,5.0071e-05,5.09e-06,0.0,0 STARLINK-4773,1 53838U 22114W   24077.83454772  .00000509  00000-0  50071-4 0  9998,2 53838  53.2168 294.8216 0001295  98.6265 261.4874 15.08835033 83457,6917.896,95.438,540.656,538.865,0.0
53838.0,STARLINK-4773,PAYLOAD,2024-03-18 13:30:59,15.08832321,0.0001262,53.2163,291.5506,95.5685,264.5451,1.2557e-05,-8.8e-07,0.0,0 STARLINK-4773,1 53838U 22114W   24078.56319389 -.00000088  00000-0  12557-4 0  9993,2 53838  53.2163 291.5506 0001262  95.5685 264.5451 15.08832321 84109,6917.904,95.438,540.642,538.896,0.0
53838.0,STARLINK-4773,PAYLOAD,2024-03-18 21:27:55,15.08832515,0.000126,53.2163,290.0637,94.1203,265.9933,1.2213e-05,-9.4e-07,0.0,0 STARLINK-4773,1 53838U 22114W   24078.89439533 -.00000094  00000-0  12213-4 0  9999,2 53838  53.2163 290.0637 0001260  94.1203 265.9933 15.08832515 84157,6917.903,95.438,540.64,538.897,0.0
53838.0,STARLINK-4773,PAYLOAD,2024-03-19 21:18:42,15.08823704,0.0001287,53.2161,285.6029,97.3588,262.755,0.00038448,5.834e-05,0.0,0 STARLINK-4773,1 53838U 22114W   24079.88798951  .00005834  00000-0  38448-3 0  9994,2 53838  53.2161 285.6029 0001287  97.3588 262.7550 15.08823704 83766,6917.93,95.439,540.686,538.905,0.0
53838.0,STARLINK-4773,PAYLOAD,2024-03-19 22:54:05,15.08826588,0.0001309,53.2161,285.3052,99.9177,260.1962,0.00039997,6.081e-05,0.0,0 STARLINK-4773,1 53838U 22114W   24079.95422789  .00006081  00000-0  39997-3 0  9990,2 53838  53.2161 285.3052 0001309  99.9177 260.1962 15.08826588 84310,6917.921,95.438,540.692,538.881,0.0
53838.0,STARLINK-4773,PAYLOAD,2024-03-20 19:34:06,15.08809472,9.76e-05,53.2173,281.4351,113.7429,246.3665,0.00049058,7.522e-05,0.0,0 STARLINK-4773,1 53838U 22114W   24080.81535685  .00007522  00000-0  49058-3 0  9997,2 53838  53.2173 281.4351 0000976 113.7429 246.3665 15.08809472 83909,6917.974,95.439,540.514,539.164,0.0
